*******************************************************************************
Ephemeris / WWW_USER Mon Mar 24 11:34:01 2025 Pasadena, USA      / Horizons    
*******************************************************************************
Target body name: 468861 (2013 LU28)              {source: JPL#36}
Center body name: Earth (399)                     {source: DE441}
Center-site name: Mauna Kea
*******************************************************************************
Start time      : A.D. 2018-Aug-22 04:55:00.0000 UT      
Stop  time      : A.D. 2018-Aug-22 15:54:00.0000 UT      
Step-size       : 1 minutes
*******************************************************************************
Target pole/equ : undefined
Target radii    : undefined                                                    
Center geodetic : 204.5278, 19.8260847, 4.21024   {E-lon(deg),Lat(deg),Alt(km)}
Center cylindric: 204.5278, 6006.35451, 2151.0229 {E-lon(deg),Dxy(km),Dz(km)}
Center pole/equ : ITRF93                          {East-longitude positive}
Center radii    : 6378.137, 6378.137, 6356.752 km {Equator_a, b, pole_c}       
Target primary  : Sun
Vis. interferer : MOON (R_eq= 1737.400) km        {source: DE441}
Rel. light bend : Sun                             {source: DE441}
Rel. lght bnd GM: 1.3271E+11 km^3/s^2                                          
Small-body perts: Yes                             {source: SB441-N16}
Atmos refraction: NO (AIRLESS)
RA format       : HMS
Time format     : CAL 
Calendar mode   : Mixed Julian/Gregorian
RTS-only print  : NO       
EOP file        : eop.250321.p250617                                           
EOP coverage    : DATA-BASED 1962-JAN-20 TO 2025-MAR-21. PREDICTS-> 2025-JUN-16
Units conversion: 1 au= 149597870.700 km, c= 299792.458 km/s, 1 day= 86400.0 s 
Table cut-offs 1: Elevation (-90.0deg=NO ),Airmass (>38.000=NO), Daylight (YES)
Table cut-offs 2: Solar elongation (  0.0,180.0=NO ),Local Hour Angle( 0.0=NO )
Table cut-offs 3: RA/DEC angular rate (     0.0=NO )                           
*******************************************************************************
Initial IAU76/J2000 heliocentric ecliptic osculating elements (au, days, deg.):
  EPOCH=  2459491.5 ! 2021-Oct-04.00 (TDB)         Residual RMS= .14077        
   EC= .9545524767334098   QR= 8.741840911970645   TP= 2460480.7801673855      
   OM= 275.9923561772391   W=  152.9171912923278   IN= 125.3473013584344       
  Equivalent ICRF heliocentric cartesian coordinates (au, au/d):
   X=-6.020062670108302E+00  Y=-1.182282064265113E+00  Z= 8.330249486138040E+00
  VX= 2.086988006100027E-03 VY= 7.079392581348984E-03 VZ=-1.092497303529149E-03
Asteroid physical parameters (km, seconds, rotational period in hours):        
   GM= n.a.                RAD= n.a.               ROTPER= n.a.                
   H= 8.24                 G= .150                 B-V= n.a.                   
                           ALBEDO= n.a.            STYP= n.a.                  
*******************************************************************************
 Date__(UT)__HR:MN     R.A._________(ICRF)_________DEC
******************************************************
$$SOE
 2018-Aug-22 09:01  m  14 58 36.219071 +36 16 47.41854
 2018-Aug-22 09:02  m  14 58 36.218799 +36 16 47.31413
 2018-Aug-22 09:03  m  14 58 36.218527 +36 16 47.20973
 2018-Aug-22 09:04  m  14 58 36.218257 +36 16 47.10532
 2018-Aug-22 09:05  m  14 58 36.217988 +36 16 47.00091
 2018-Aug-22 09:06  m  14 58 36.217719 +36 16 46.89651
 2018-Aug-22 09:07  m  14 58 36.217452 +36 16 46.79210
 2018-Aug-22 09:08  m  14 58 36.217186 +36 16 46.68769
 2018-Aug-22 09:09  m  14 58 36.216921 +36 16 46.58329
 2018-Aug-22 09:10  m  14 58 36.216656 +36 16 46.47888
 2018-Aug-22 09:11  m  14 58 36.216393 +36 16 46.37447
 2018-Aug-22 09:12  m  14 58 36.216131 +36 16 46.27006
 2018-Aug-22 09:13  m  14 58 36.215870 +36 16 46.16565
 2018-Aug-22 09:14  m  14 58 36.215610 +36 16 46.06125
 2018-Aug-22 09:15  m  14 58 36.215351 +36 16 45.95684
 2018-Aug-22 09:16  m  14 58 36.215094 +36 16 45.85243
 2018-Aug-22 09:17  m  14 58 36.214837 +36 16 45.74802
 2018-Aug-22 09:18  m  14 58 36.214581 +36 16 45.64361
 2018-Aug-22 09:19  m  14 58 36.214326 +36 16 45.53920
 2018-Aug-22 09:20  m  14 58 36.214073 +36 16 45.43480
 2018-Aug-22 09:21  m  14 58 36.213820 +36 16 45.33039
 2018-Aug-22 09:22  m  14 58 36.213568 +36 16 45.22598
 2018-Aug-22 09:23  m  14 58 36.213318 +36 16 45.12157
 2018-Aug-22 09:24  m  14 58 36.213068 +36 16 45.01716
 2018-Aug-22 09:25  m  14 58 36.212820 +36 16 44.91276
 2018-Aug-22 09:26  m  14 58 36.212572 +36 16 44.80835
 2018-Aug-22 09:27  m  14 58 36.212326 +36 16 44.70394
 2018-Aug-22 09:28  m  14 58 36.212081 +36 16 44.59953
 2018-Aug-22 09:29  m  14 58 36.211836 +36 16 44.49513
 2018-Aug-22 09:30  m  14 58 36.211593 +36 16 44.39072
 2018-Aug-22 09:31  m  14 58 36.211351 +36 16 44.28631
 2018-Aug-22 09:32  m  14 58 36.211110 +36 16 44.18191
 2018-Aug-22 09:33  m  14 58 36.210870 +36 16 44.07750
 2018-Aug-22 09:34  m  14 58 36.210630 +36 16 43.97310
 2018-Aug-22 09:35  m  14 58 36.210392 +36 16 43.86869
 2018-Aug-22 09:36  m  14 58 36.210155 +36 16 43.76429
 2018-Aug-22 09:37  m  14 58 36.209919 +36 16 43.65989
 2018-Aug-22 09:38  m  14 58 36.209685 +36 16 43.55549
 2018-Aug-22 09:39  m  14 58 36.209451 +36 16 43.45108
 2018-Aug-22 09:40  m  14 58 36.209218 +36 16 43.34668
 2018-Aug-22 09:41  m  14 58 36.208986 +36 16 43.24228
 2018-Aug-22 09:42  m  14 58 36.208755 +36 16 43.13788
 2018-Aug-22 09:43  m  14 58 36.208526 +36 16 43.03348
 2018-Aug-22 09:44  m  14 58 36.208297 +36 16 42.92908
 2018-Aug-22 09:45  m  14 58 36.208069 +36 16 42.82468
 2018-Aug-22 09:46  m  14 58 36.207843 +36 16 42.72029
 2018-Aug-22 09:47  m  14 58 36.207617 +36 16 42.61589
 2018-Aug-22 09:48  m  14 58 36.207393 +36 16 42.51149
 2018-Aug-22 09:49  m  14 58 36.207169 +36 16 42.40710
 2018-Aug-22 09:50  m  14 58 36.206947 +36 16 42.30271
 2018-Aug-22 09:51  m  14 58 36.206725 +36 16 42.19831
 2018-Aug-22 09:52  m  14 58 36.206505 +36 16 42.09392
 2018-Aug-22 09:53  m  14 58 36.206285 +36 16 41.98953
 2018-Aug-22 09:54  m  14 58 36.206067 +36 16 41.88514
 2018-Aug-22 09:55  m  14 58 36.205850 +36 16 41.78075
 2018-Aug-22 09:56  m  14 58 36.205634 +36 16 41.67636
 2018-Aug-22 09:57  m  14 58 36.205418 +36 16 41.57198
 2018-Aug-22 09:58  m  14 58 36.205204 +36 16 41.46759
 2018-Aug-22 09:59  m  14 58 36.204991 +36 16 41.36321
 2018-Aug-22 10:00  m  14 58 36.204779 +36 16 41.25882
 2018-Aug-22 10:01  m  14 58 36.204568 +36 16 41.15444
 2018-Aug-22 10:02  m  14 58 36.204358 +36 16 41.05006
 2018-Aug-22 10:03  m  14 58 36.204149 +36 16 40.94568
 2018-Aug-22 10:04  m  14 58 36.203941 +36 16 40.84130
 2018-Aug-22 10:05  m  14 58 36.203734 +36 16 40.73692
 2018-Aug-22 10:06  m  14 58 36.203528 +36 16 40.63255
 2018-Aug-22 10:07  m  14 58 36.203323 +36 16 40.52817
 2018-Aug-22 10:08  m  14 58 36.203119 +36 16 40.42380
 2018-Aug-22 10:09  m  14 58 36.202916 +36 16 40.31943
 2018-Aug-22 10:10  m  14 58 36.202714 +36 16 40.21506
 2018-Aug-22 10:11  m  14 58 36.202513 +36 16 40.11069
 2018-Aug-22 10:12  m  14 58 36.202313 +36 16 40.00632
 2018-Aug-22 10:13  m  14 58 36.202114 +36 16 39.90196
 2018-Aug-22 10:14  m  14 58 36.201917 +36 16 39.79759
 2018-Aug-22 10:15  m  14 58 36.201720 +36 16 39.69323
 2018-Aug-22 10:16  m  14 58 36.201524 +36 16 39.58887
 2018-Aug-22 10:17  m  14 58 36.201329 +36 16 39.48451
 2018-Aug-22 10:18  m  14 58 36.201136 +36 16 39.38015
 2018-Aug-22 10:19  m  14 58 36.200943 +36 16 39.27579
 2018-Aug-22 10:20  m  14 58 36.200751 +36 16 39.17144
 2018-Aug-22 10:21  m  14 58 36.200561 +36 16 39.06709
 2018-Aug-22 10:22  m  14 58 36.200371 +36 16 38.96273
 2018-Aug-22 10:23  m  14 58 36.200182 +36 16 38.85839
 2018-Aug-22 10:24  m  14 58 36.199995 +36 16 38.75404
 2018-Aug-22 10:25  m  14 58 36.199808 +36 16 38.64969
 2018-Aug-22 10:26  m  14 58 36.199622 +36 16 38.54535
 2018-Aug-22 10:27  m  14 58 36.199438 +36 16 38.44101
 2018-Aug-22 10:28  m  14 58 36.199254 +36 16 38.33667
 2018-Aug-22 10:29  m  14 58 36.199071 +36 16 38.23233
 2018-Aug-22 10:30  m  14 58 36.198890 +36 16 38.12799
 2018-Aug-22 10:31  m  14 58 36.198709 +36 16 38.02366
 2018-Aug-22 10:32  m  14 58 36.198529 +36 16 37.91933
 2018-Aug-22 10:33  m  14 58 36.198351 +36 16 37.81500
 2018-Aug-22 10:34  m  14 58 36.198173 +36 16 37.71067
 2018-Aug-22 10:35  s  14 58 36.197997 +36 16 37.60634
 2018-Aug-22 10:36  m  14 58 36.197821 +36 16 37.50202
 2018-Aug-22 10:37  m  14 58 36.197646 +36 16 37.39770
 2018-Aug-22 10:38  m  14 58 36.197473 +36 16 37.29338
 2018-Aug-22 10:39  m  14 58 36.197300 +36 16 37.18906
 2018-Aug-22 10:40  m  14 58 36.197128 +36 16 37.08475
 2018-Aug-22 10:41  m  14 58 36.196958 +36 16 36.98044
 2018-Aug-22 10:42  m  14 58 36.196788 +36 16 36.87613
 2018-Aug-22 10:43  m  14 58 36.196619 +36 16 36.77182
 2018-Aug-22 10:44  m  14 58 36.196451 +36 16 36.66751
 2018-Aug-22 10:45  m  14 58 36.196285 +36 16 36.56321
 2018-Aug-22 10:46  m  14 58 36.196119 +36 16 36.45891
 2018-Aug-22 10:47  m  14 58 36.195954 +36 16 36.35461
 2018-Aug-22 10:48  m  14 58 36.195790 +36 16 36.25031
 2018-Aug-22 10:49  m  14 58 36.195627 +36 16 36.14602
 2018-Aug-22 10:50  m  14 58 36.195466 +36 16 36.04173
 2018-Aug-22 10:51  m  14 58 36.195305 +36 16 35.93744
 2018-Aug-22 10:52  m  14 58 36.195145 +36 16 35.83315
 2018-Aug-22 10:53  m  14 58 36.194986 +36 16 35.72887
 2018-Aug-22 10:54  m  14 58 36.194828 +36 16 35.62459
 2018-Aug-22 10:55  m  14 58 36.194671 +36 16 35.52031
 2018-Aug-22 10:56  m  14 58 36.194515 +36 16 35.41604
 2018-Aug-22 10:57  m  14 58 36.194360 +36 16 35.31176
 2018-Aug-22 10:58  m  14 58 36.194206 +36 16 35.20749
 2018-Aug-22 10:59  m  14 58 36.194052 +36 16 35.10323
 2018-Aug-22 11:00  m  14 58 36.193900 +36 16 34.99896
 2018-Aug-22 11:01  m  14 58 36.193749 +36 16 34.89470
 2018-Aug-22 11:02  m  14 58 36.193599 +36 16 34.79044
 2018-Aug-22 11:03  m  14 58 36.193449 +36 16 34.68619
